[{"OBJECT_NAME":"ONEWEB-0507","OBJECT_ID":"2022-138N","EPOCH":"2026-05-01T06:22:26.330592","MEAN_MOTION":13.19724015,"ECCENTRICITY":0.0001891,"INCLINATION":87.9148,"RA_OF_ASC_NODE":314.3343,"ARG_OF_PERICENTER":82.7632,"MEAN_ANOMALY":277.3716,"EPHEMERIS_TYPE":0,"CLASSIFICATION_TYPE":"U","NORAD_CAT_ID":54125,"ELEMENT_SET_NO":999,"REV_AT_EPOCH":17066,"BSTAR":0.00012826000000000002,"MEAN_MOTION_DOT":6.4e-07,"MEAN_MOTION_DDOT":0.0},{"OBJECT_NAME":"ONEWEB-0508","OBJECT_ID":"2022-138P","EPOCH":"2026-05-01T06:17:54.511008","MEAN_MOTION":13.19724996,"ECCENTRICITY":0.0001937,"INCLINATION":87.9147,"RA_OF_ASC_NODE":314.3344,"ARG_OF_PERICENTER":75.6341,"MEAN_ANOMALY":284.5006,"EPHEMERIS_TYPE":0,"CLASSIFICATION_TYPE":"U","NORAD_CAT_ID":54126,"ELEMENT_SET_NO":999,"REV_AT_EPOCH":17064,"BSTAR":-3.2109e-05,"MEAN_MOTION_DOT":0.0,"MEAN_MOTION_DDOT":0.0},{"OBJECT_NAME":"ONEWEB-0509","OBJECT_ID":"2022-138Q","EPOCH":"2026-05-01T05:41:31.247808","MEAN_MOTION":13.19725127,"ECCENTRICITY":0.0001855,"INCLINATION":87.916,"RA_OF_ASC_NODE":314.3243,"ARG_OF_PERICENTER":85.7916,"MEAN_ANOMALY":274.3428,"EPHEMERIS_TYPE":0,"CLASSIFICATION_TYPE":"U","NORAD_CAT_ID":54127,"ELEMENT_SET_NO":999,"REV_AT_EPOCH":17061,"BSTAR":-3.1951000000000006e-05,"MEAN_MOTION_DOT":0.0,"MEAN_MOTION_DDOT":0.0},{"OBJECT_NAME":"ONEWEB-0510","OBJECT_ID":"2022-138R","EPOCH":"2026-05-01T00:15:30.764736","MEAN_MOTION":13.20773102,"ECCENTRICITY":0.0001673,"INCLINATION":87.9145,"RA_OF_ASC_NODE":283.8486,"ARG_OF_PERICENTER":110.3459,"MEAN_ANOMALY":249.7855,"EPHEMERIS_TYPE":0,"CLASSIFICATION_TYPE":"U","NORAD_CAT_ID":54128,"ELEMENT_SET_NO":999,"REV_AT_EPOCH":17305,"BSTAR":0.00018894,"MEAN_MOTION_DOT":9e-07,"MEAN_MOTION_DDOT":0.0},{"OBJECT_NAME":"ONEWEB-0511","OBJECT_ID":"2022-138S","EPOCH":"2026-05-01T05:36:57.135168","MEAN_MOTION":13.19726451,"ECCENTRICITY":0.0002103,"INCLINATION":87.9158,"RA_OF_ASC_NODE":314.3289,"ARG_OF_PERICENTER":91.4841,"MEAN_ANOMALY":268.6532,"EPHEMERIS_TYPE":0,"CLASSIFICATION_TYPE":"U","NORAD_CAT_ID":54129,"ELEMENT_SET_NO":999,"REV_AT_EPOCH":17064,"BSTAR":-9.102e-05,"MEAN_MOTION_DOT":-2.3e-07,"MEAN_MOTION_DDOT":0.0},{"OBJECT_NAME":"ONEWEB-0512","OBJECT_ID":"2022-138T","EPOCH":"2026-05-01T05:25:35.847840","MEAN_MOTION":13.19726008,"ECCENTRICITY":0.0002101,"INCLINATION":87.9147,"RA_OF_ASC_NODE":314.339,"ARG_OF_PERICENTER":83.8872,"MEAN_ANOMALY":276.25,"EPHEMERIS_TYPE":0,"CLASSIFICATION_TYPE":"U","NORAD_CAT_ID":54130,"ELEMENT_SET_NO":999,"REV_AT_EPOCH":17061,"BSTAR":9.045200000000001e-05,"MEAN_MOTION_DOT":4.9e-07,"MEAN_MOTION_DDOT":0.0},{"OBJECT_NAME":"ONEWEB-0513","OBJECT_ID":"2022-138U","EPOCH":"2026-05-01T06:01:24.837888","MEAN_MOTION":13.20266345,"ECCENTRICITY":0.0002752,"INCLINATION":87.9154,"RA_OF_ASC_NODE":314.2838,"ARG_OF_PERICENTER":84.1645,"MEAN_ANOMALY":275.9802,"EPHEMERIS_TYPE":0,"CLASSIFICATION_TYPE":"U","NORAD_CAT_ID":54131,"ELEMENT_SET_NO":999,"REV_AT_EPOCH":17052,"BSTAR":0.00011785,"MEAN_MOTION_DOT":6.1e-07,"MEAN_MOTION_DDOT":0.0},{"OBJECT_NAME":"ONEWEB-0514","OBJECT_ID":"2022-138V","EPOCH":"2026-05-01T05:48:19.887840","MEAN_MOTION":13.19725293,"ECCENTRICITY":0.0001771,"INCLINATION":87.9153,"RA_OF_ASC_NODE":314.3253,"ARG_OF_PERICENTER":92.898,"MEAN_ANOMALY":267.2356,"EPHEMERIS_TYPE":0,"CLASSIFICATION_TYPE":"U","NORAD_CAT_ID":54132,"ELEMENT_SET_NO":999,"REV_AT_EPOCH":17063,"BSTAR":-3.2545000000000003e-06,"MEAN_MOTION_DOT":1.2e-07,"MEAN_MOTION_DDOT":0.0},{"OBJECT_NAME":"ONEWEB-0515","OBJECT_ID":"2022-138W","EPOCH":"2026-04-30T23:57:17.582688","MEAN_MOTION":13.20773806,"ECCENTRICITY":9.61e-05,"INCLINATION":87.9154,"RA_OF_ASC_NODE":283.8431,"ARG_OF_PERICENTER":109.1764,"MEAN_ANOMALY":250.9473,"EPHEMERIS_TYPE":0,"CLASSIFICATION_TYPE":"U","NORAD_CAT_ID":54133,"ELEMENT_SET_NO":999,"REV_AT_EPOCH":17307,"BSTAR":-0.00012336,"MEAN_MOTION_DOT":-3.7e-07,"MEAN_MOTION_DDOT":0.0},{"OBJECT_NAME":"ONEWEB-0516","OBJECT_ID":"2022-138X","EPOCH":"2026-05-01T07:01:05.801664","MEAN_MOTION":13.19723714,"ECCENTRICITY":0.0001722,"INCLINATION":87.9148,"RA_OF_ASC_NODE":314.3262,"ARG_OF_PERICENTER":84.8045,"MEAN_ANOMALY":275.3285,"EPHEMERIS_TYPE":0,"CLASSIFICATION_TYPE":"U","NORAD_CAT_ID":54134,"ELEMENT_SET_NO":999,"REV_AT_EPOCH":17064,"BSTAR":-3.0297e-05,"MEAN_MOTION_DOT":1e-08,"MEAN_MOTION_DDOT":0.0},{"OBJECT_NAME":"ONEWEB-0517","OBJECT_ID":"2022-138Y","EPOCH":"2026-05-01T06:31:32.667168","MEAN_MOTION":13.19724337,"ECCENTRICITY":0.0002014,"INCLINATION":87.9147,"RA_OF_ASC_NODE":314.3198,"ARG_OF_PERICENTER":95.976,"MEAN_ANOMALY":264.1603,"EPHEMERIS_TYPE":0,"CLASSIFICATION_TYPE":"U","NORAD_CAT_ID":54135,"ELEMENT_SET_NO":999,"REV_AT_EPOCH":17064,"BSTAR":-1.654e-06,"MEAN_MOTION_DOT":1.2e-07,"MEAN_MOTION_DDOT":0.0},{"OBJECT_NAME":"ONEWEB-0518","OBJECT_ID":"2022-138Z","EPOCH":"2026-05-01T06:58:49.351008","MEAN_MOTION":13.19725312,"ECCENTRICITY":0.0001775,"INCLINATION":87.9148,"RA_OF_ASC_NODE":314.3283,"ARG_OF_PERICENTER":83.0454,"MEAN_ANOMALY":277.0881,"EPHEMERIS_TYPE":0,"CLASSIFICATION_TYPE":"U","NORAD_CAT_ID":54136,"ELEMENT_SET_NO":999,"REV_AT_EPOCH":17064,"BSTAR":-0.0008552300000000001,"MEAN_MOTION_DOT":-3.29e-06,"MEAN_MOTION_DDOT":0.0},{"OBJECT_NAME":"ONEWEB-0519","OBJECT_ID":"2022-138AA","EPOCH":"2026-05-01T05:46:03.296352","MEAN_MOTION":13.19725999,"ECCENTRICITY":0.0001975,"INCLINATION":87.916,"RA_OF_ASC_NODE":314.3238,"ARG_OF_PERICENTER":92.7977,"MEAN_ANOMALY":267.3382,"EPHEMERIS_TYPE":0,"CLASSIFICATION_TYPE":"U","NORAD_CAT_ID":54137,"ELEMENT_SET_NO":999,"REV_AT_EPOCH":17064,"BSTAR":0.00011697000000000001,"MEAN_MOTION_DOT":6e-07,"MEAN_MOTION_DDOT":0.0},{"OBJECT_NAME":"ONEWEB-0520","OBJECT_ID":"2022-138AB","EPOCH":"2026-05-01T06:36:06.251904","MEAN_MOTION":13.19724214,"ECCENTRICITY":0.0001933,"INCLINATION":87.9153,"RA_OF_ASC_NODE":314.3188,"ARG_OF_PERICENTER":81.6048,"MEAN_ANOMALY":278.5304,"EPHEMERIS_TYPE":0,"CLASSIFICATION_TYPE":"U","NORAD_CAT_ID":54138,"ELEMENT_SET_NO":999,"REV_AT_EPOCH":17063,"BSTAR":3.7171e-05,"MEAN_MOTION_DOT":2.8e-07,"MEAN_MOTION_DDOT":0.0},{"OBJECT_NAME":"ONEWEB-0521","OBJECT_ID":"2022-138AC","EPOCH":"2026-05-01T05:34:40.523808","MEAN_MOTION":13.1972501,"ECCENTRICITY":0.0001895,"INCLINATION":87.9157,"RA_OF_ASC_NODE":314.3152,"ARG_OF_PERICENTER":95.7741,"MEAN_ANOMALY":264.3608,"EPHEMERIS_TYPE":0,"CLASSIFICATION_TYPE":"U","NORAD_CAT_ID":54139,"ELEMENT_SET_NO":999,"REV_AT_EPOCH":17057,"BSTAR":0.00013399,"MEAN_MOTION_DOT":6.7e-07,"MEAN_MOTION_DDOT":0.0},{"OBJECT_NAME":"ONEWEB-0522","OBJECT_ID":"2022-138AD","EPOCH":"2026-05-01T06:54:17.817408","MEAN_MOTION":13.19724728,"ECCENTRICITY":0.0001921,"INCLINATION":87.916,"RA_OF_ASC_NODE":314.3061,"ARG_OF_PERICENTER":85.7508,"MEAN_ANOMALY":274.3844,"EPHEMERIS_TYPE":0,"CLASSIFICATION_TYPE":"U","NORAD_CAT_ID":54140,"ELEMENT_SET_NO":999,"REV_AT_EPOCH":17062,"BSTAR":-0.00016885,"MEAN_MOTION_DOT":-5.5e-07,"MEAN_MOTION_DDOT":0.0}]