ONEWEB-0507             
1 54125U 22138N   26121.26558253  .00000064  00000+0  12826-3 0  9992
2 54125  87.9148 314.3343 0001891  82.7632 277.3716 13.19724015170660
ONEWEB-0508             
1 54126U 22138P   26121.26243647  .00000000  00000+0 -32109-4 0  9999
2 54126  87.9147 314.3344 0001937  75.6341 284.5006 13.19724996170648
ONEWEB-0509             
1 54127U 22138Q   26121.23716722  .00000000  00000+0 -31951-4 0  9990
2 54127  87.9160 314.3243 0001855  85.7916 274.3428 13.19725127170610
ONEWEB-0510             
1 54128U 22138R   26121.01077274  .00000090  00000+0  18894-3 0  9997
2 54128  87.9145 283.8486 0001673 110.3459 249.7855 13.20773102173057
ONEWEB-0511             
1 54129U 22138S   26121.23399462 -.00000023  00000+0 -91020-4 0  9999
2 54129  87.9158 314.3289 0002103  91.4841 268.6532 13.19726451170643
ONEWEB-0512             
1 54130U 22138T   26121.22610935  .00000049  00000+0  90452-4 0  9995
2 54130  87.9147 314.3390 0002101  83.8872 276.2500 13.19726008170618
ONEWEB-0513             
1 54131U 22138U   26121.25098192  .00000061  00000+0  11785-3 0  9999
2 54131  87.9154 314.2838 0002752  84.1645 275.9802 13.20266345170523
ONEWEB-0514             
1 54132U 22138V   26121.24189685  .00000012  00000+0 -32545-5 0  9993
2 54132  87.9153 314.3253 0001771  92.8980 267.2356 13.19725293170633
ONEWEB-0515             
1 54133U 22138W   26120.99812017 -.00000037  00000+0 -12336-3 0  9999
2 54133  87.9154 283.8431 0000961 109.1764 250.9473 13.20773806173070
ONEWEB-0516             
1 54134U 22138X   26121.29242826  .00000001  00000+0 -30297-4 0  9996
2 54134  87.9148 314.3262 0001722  84.8045 275.3285 13.19723714170646
ONEWEB-0517             
1 54135U 22138Y   26121.27190587  .00000012  00000+0 -16540-5 0  9999
2 54135  87.9147 314.3198 0002014  95.9760 264.1603 13.19724337170648
ONEWEB-0518             
1 54136U 22138Z   26121.29084897 -.00000329  00000+0 -85523-3 0  9995
2 54136  87.9148 314.3283 0001775  83.0454 277.0881 13.19725312170641
ONEWEB-0519             
1 54137U 22138AA  26121.24031593  .00000060  00000+0  11697-3 0  9997
2 54137  87.9160 314.3238 0001975  92.7977 267.3382 13.19725999170644
ONEWEB-0520             
1 54138U 22138AB  26121.27507236  .00000028  00000+0  37171-4 0  9993
2 54138  87.9153 314.3188 0001933  81.6048 278.5304 13.19724214170637
ONEWEB-0521             
1 54139U 22138AC  26121.23241347  .00000067  00000+0  13399-3 0  9996
2 54139  87.9157 314.3152 0001895  95.7741 264.3608 13.19725010170574
ONEWEB-0522             
1 54140U 22138AD  26121.28770622 -.00000055  00000+0 -16885-3 0  9998
2 54140  87.9160 314.3061 0001921  85.7508 274.3844 13.19724728170623
